O3B FM5                 
1 39188U 13031A   17290.63658257 -.00000032  00000-0  00000-0 0  9994
2 39188   0.0582   7.2380 0008394 198.1764 154.5482  5.00115951 78816
O3B FM4                 
1 39189U 13031B   17285.13164190 -.00000027  00000-0  00000-0 0  9996
2 39189   0.0324 354.2848 0002072  62.4289 303.3109  5.00115831 78555
O3B FM2                 
1 39190U 13031C   17290.30380577 -.00000032  00000-0  00000-0 0  9998
2 39190   0.0309 346.1808 0002668  65.0362 308.8106  5.00115742 78770
O3B PFM                 
1 39191U 13031D   17290.52698283 -.00000032  00000-0  00000-0 0  9999
2 39191   0.0499   6.0463 0002846 160.3576 193.6077  5.00115932 78794
O3B FM3                 
1 40079U 14038A   17286.44106629 -.00000029  00000-0  00000+0 0  9993
2 40079   0.0408 359.2225 0004922 203.6769 157.0827  5.00115652 59584
O3B FM7                 
1 40080U 14038B   17290.39358398 -.00000032  00000-0  00000-0 0  9991
2 40080   0.0382   0.1037 0003186 206.9903 152.8932  5.00115427 59666
O3B FM6                 
1 40081U 14038C   17290.41659500 -.00000032  00000-0  00000-0 0  9994
2 40081   0.0396 359.9287 0003682 206.9172 153.1390  5.00114759 59640
O3B FM8                 
1 40082U 14038D   17290.06134145 -.00000032  00000-0  00000-0 0  9999
2 40082   0.0362 359.0416 0002926 183.6849 177.2757  5.00115977 59749
O3B FM10                
1 40348U 14083A   17290.28331221 -.00000032  00000-0  00000-0 0  9992
2 40348   0.0463   1.9029 0002637 228.3838 129.6939  5.00115883 51711
O3B FM11                
1 40349U 14083B   17290.10528146 -.00000032  00000-0  00000-0 0  9998
2 40349   0.0477   4.1714 0002171 216.3021 139.5142  5.00115699 51718
O3B FM12                
1 40350U 14083C   17290.37218749 -.00000032  00000-0  00000-0 0  9994
2 40350   0.0466   4.2321 0002335 202.8259 152.9337  5.00115511 51727
O3B FM9                 
1 40351U 14083D   17290.54956408 -.00000032  00000-0  00000-0 0  9995
2 40351   0.0486   3.4315 0002611 217.2973 139.2557  5.00115531 51751
DIAMOND RED             
1 42783U 17036U   17290.87405361  .00001571  00000-0  74143-4 0  9991
2 42783  97.4371 349.2083 0012140 197.8859 162.1951 15.20868053 17675
DIAMOND GREEN           
1 42785U 17036W   17290.87305485  .00001644  00000-0  77478-4 0  9994
2 42785  97.4373 349.2130 0012029 198.2411 161.8395 15.20862026 17747
DIAMOND BLUE            
1 42786U 17036X   17290.87099722  .00001609  00000-0  75924-4 0  9994
2 42786  97.4373 349.2148 0011854 198.5699 161.5105 15.20841550 17748
